start=new Date('2021-10-01T00:00:00.000Z').valueOf();
sats=[{"MEAN_MOTION_DDOT":"0.0000000000000","ELEMENT_SET_NO":"999","OBJECT_TYPE":"PAYLOAD","SITE":"AFETR","TLE_LINE2":"2 46162  53.0555  13.6082 0001296  94.7981 265.3156 15.06392879 62691","OBJECT_NAME":"STARLINK-1603","NORAD_CAT_ID":"46162","MEAN_MOTION":"15.06392879","OBJECT_ID":"2020-057AX","PERIAPSIS":"546.338","BSTAR":"0.00017158000000","COUNTRY_CODE":"US","ECCENTRICITY":"0.00012960","TLE_LINE1":"1 46162U 20057AX  21273.68138024  .00002275  00000-0  17158-3 0  9991","DECAY_DATE":null,"CENTER_NAME":"EARTH","INCLINATION":"53.0555","MEAN_MOTION_DOT":"0.00002275","MEAN_ANOMALY":"265.3156","REF_FRAME":"TEME","MEAN_ELEMENT_THEORY":"SGP4","EPHEMERIS_TYPE":"0","LAUNCH_DATE":"2020-08-18","FILE":"3136911","REV_AT_EPOCH":"6269","APOAPSIS":"548.133","EPOCH":"2021-09-30T16:21:11.252736","PERIOD":"95.593","RCS_SIZE":"LARGE","SEMIMAJOR_AXIS":"6925.370","ARG_OF_PERICENTER":"94.7981","TIME_SYSTEM":"UTC","RA_OF_ASC_NODE":"13.6082","CLASSIFICATION_TYPE":"U","GP_ID":"185838060"},{"TIME_SYSTEM":"UTC","RA_OF_ASC_NODE":"354.2194","PERIOD":"95.593","EPOCH":"2021-09-30T13:07:26.187168","APOAPSIS":"548.148","ARG_OF_PERICENTER":"101.0456","SEMIMAJOR_AXIS":"6925.367","RCS_SIZE":"LARGE","CLASSIFICATION_TYPE":"U","GP_ID":"185860323","ECCENTRICITY":"0.00013230","COUNTRY_CODE":"US","BSTAR":"0.00003692500000","INCLINATION":"53.0567","MEAN_MOTION_DOT":"0.00000269","TLE_LINE1":"1 46163U 20057AY  21273.54683087  .00000269  00000-0  36925-4 0  9996","DECAY_DATE":null,"CENTER_NAME":"EARTH","OBJECT_NAME":"STARLINK-1610","TLE_LINE2":"2 46163  53.0567 354.2194 0001323 101.0456 259.0682 15.06393936 62287","SITE":"AFETR","ELEMENT_SET_NO":"999","OBJECT_TYPE":"PAYLOAD","MEAN_MOTION_DDOT":"0.0000000000000","PERIAPSIS":"546.316","OBJECT_ID":"2020-057AY","MEAN_MOTION":"15.06393936","NORAD_CAT_ID":"46163","REV_AT_EPOCH":"6228","FILE":"3136969","LAUNCH_DATE":"2020-08-18","REF_FRAME":"TEME","MEAN_ANOMALY":"259.0682","EPHEMERIS_TYPE":"0","MEAN_ELEMENT_THEORY":"SGP4"},{"LAUNCH_DATE":"2020-08-18","FILE":"3136969","REV_AT_EPOCH":"6354","MEAN_ANOMALY":"261.7786","REF_FRAME":"TEME","MEAN_ELEMENT_THEORY":"SGP4","EPHEMERIS_TYPE":"0","BSTAR":"0.00017680000000","ECCENTRICITY":"0.00012250","COUNTRY_CODE":"US","DECAY_DATE":null,"TLE_LINE1":"1 46164U 20057AZ  21273.54314507  .00002353  00000-0  17680-3 0  9997","CENTER_NAME":"EARTH","INCLINATION":"53.0551","MEAN_MOTION_DOT":"0.00002353","MEAN_MOTION_DDOT":"0.0000000000000","ELEMENT_SET_NO":"999","OBJECT_TYPE":"PAYLOAD","TLE_LINE2":"2 46164  53.0551 354.2425 0001225  98.3342 261.7786 15.06395410 63545","SITE":"AFETR","OBJECT_NAME":"STARLINK-1612","NORAD_CAT_ID":"46164","OBJECT_ID":"2020-057AZ","MEAN_MOTION":"15.06395410","PERIAPSIS":"546.379","CLASSIFICATION_TYPE":"U","GP_ID":"185861574","TIME_SYSTEM":"UTC","RA_OF_ASC_NODE":"354.2425","APOAPSIS":"548.076","EPOCH":"2021-09-30T13:02:07.734048","PERIOD":"95.592","RCS_SIZE":"LARGE","ARG_OF_PERICENTER":"98.3342","SEMIMAJOR_AXIS":"6925.363"},{"GP_ID":"185838573","CLASSIFICATION_TYPE":"U","APOAPSIS":"548.199","EPOCH":"2021-09-30T14:53:35.539008","PERIOD":"95.592","RCS_SIZE":"LARGE","ARG_OF_PERICENTER":"95.7432","SEMIMAJOR_AXIS":"6925.361","TIME_SYSTEM":"UTC","RA_OF_ASC_NODE":"33.8915","MEAN_ANOMALY":"264.3717","REF_FRAME":"TEME","MEAN_ELEMENT_THEORY":"SGP4","EPHEMERIS_TYPE":"0","LAUNCH_DATE":"2020-08-18","FILE":"3136934","REV_AT_EPOCH":"6239","MEAN_MOTION_DDOT":"0.0000000000000","OBJECT_TYPE":"PAYLOAD","ELEMENT_SET_NO":"999","SITE":"AFETR","TLE_LINE2":"2 46165  53.0566  33.8915 0001405  95.7432 264.3717 15.06396060 62394","OBJECT_NAME":"STARLINK-1613","MEAN_MOTION":"15.06396060","OBJECT_ID":"2020-057BA","NORAD_CAT_ID":"46165","PERIAPSIS":"546.253","BSTAR":"0.00009605700000","COUNTRY_CODE":"US","ECCENTRICITY":"0.00014050","TLE_LINE1":"1 46165U 20057BA  21273.62055022  .00001149  00000-0  96057-4 0  9999","DECAY_DATE":null,"CENTER_NAME":"EARTH","MEAN_MOTION_DOT":"0.00001149","INCLINATION":"53.0566"},{"EPHEMERIS_TYPE":"0","MEAN_ELEMENT_THEORY":"SGP4","MEAN_ANOMALY":"254.4592","REF_FRAME":"TEME","REV_AT_EPOCH":"6172","LAUNCH_DATE":"2020-08-18","FILE":"3136969","PERIAPSIS":"546.342","OBJECT_ID":"2020-057BB","NORAD_CAT_ID":"46166","MEAN_MOTION":"15.06392142","SITE":"AFETR","TLE_LINE2":"2 46166  53.0558  34.2907 0001293 105.6539 254.4592 15.06392142 61720","OBJECT_NAME":"STARLINK-1615","MEAN_MOTION_DDOT":"0.0000000000000","ELEMENT_SET_NO":"999","OBJECT_TYPE":"PAYLOAD","INCLINATION":"53.0558","MEAN_MOTION_DOT":"0.00002334","TLE_LINE1":"1 46166U 20057BB  21273.52840834  .00002334  00000-0  17554-3 0  9993","DECAY_DATE":null,"CENTER_NAME":"EARTH","COUNTRY_CODE":"US","ECCENTRICITY":"0.00012930","BSTAR":"0.00017554000000","CLASSIFICATION_TYPE":"U","GP_ID":"185860573","ARG_OF_PERICENTER":"105.6539","SEMIMAJOR_AXIS":"6925.373","RCS_SIZE":"LARGE","PERIOD":"95.593","APOAPSIS":"548.133","EPOCH":"2021-09-30T12:40:54.480576","RA_OF_ASC_NODE":"34.2907","TIME_SYSTEM":"UTC"},{"RCS_SIZE":"LARGE","SEMIMAJOR_AXIS":"6925.362","ARG_OF_PERICENTER":"99.8236","APOAPSIS":"548.268","EPOCH":"2021-09-30T17:48:45.142560","PERIOD":"95.592","RA_OF_ASC_NODE":"33.3395","TIME_SYSTEM":"UTC","CLASSIFICATION_TYPE":"U","GP_ID":"185838607","OBJECT_ID":"2020-057BC","NORAD_CAT_ID":"46167","MEAN_MOTION":"15.06395661","PERIAPSIS":"546.185","OBJECT_TYPE":"PAYLOAD","ELEMENT_SET_NO":"999","MEAN_MOTION_DDOT":"0.0000000000000","OBJECT_NAME":"STARLINK-1626","SITE":"AFETR","TLE_LINE2":"2 46167  53.0564  33.3395 0001504  99.8236 260.2922 15.06395661 62410","DECAY_DATE":null,"TLE_LINE1":"1 46167U 20057BC  21273.74218915  .00000063  00000-0  23137-4 0  9999","CENTER_NAME":"EARTH","MEAN_MOTION_DOT":"0.00000063","INCLINATION":"53.0564","BSTAR":"0.00002313700000","COUNTRY_CODE":"US","ECCENTRICITY":"0.00015040","MEAN_ELEMENT_THEORY":"SGP4","EPHEMERIS_TYPE":"0","REF_FRAME":"TEME","MEAN_ANOMALY":"260.2922","FILE":"3136914","LAUNCH_DATE":"2020-08-18","REV_AT_EPOCH":"6241"},{"REV_AT_EPOCH":"6308","FILE":"3136935","LAUNCH_DATE":"2020-08-18","EPHEMERIS_TYPE":"0","MEAN_ELEMENT_THEORY":"SGP4","REF_FRAME":"TEME","MEAN_ANOMALY":"250.6470","MEAN_MOTION_DOT":"0.00001510","INCLINATION":"53.0555","TLE_LINE1":"1 46168U 20057BD  21273.57998046  .00001510  00000-0  12021-3 0  9998","DECAY_DATE":null,"CENTER_NAME":"EARTH","COUNTRY_CODE":"US","ECCENTRICITY":"0.00010930","BSTAR":"0.00012021000000","PERIAPSIS":"546.450","OBJECT_ID":"2020-057BD","MEAN_MOTION":"15.06402142","NORAD_CAT_ID":"46168","OBJECT_NAME":"STARLINK-1627","TLE_LINE2":"2 46168  53.0555 344.0650 0001093 109.4637 250.6470 15.06402142 63081","SITE":"AFETR","OBJECT_TYPE":"PAYLOAD","ELEMENT_SET_NO":"999","MEAN_MOTION_DDOT":"0.0000000000000","GP_ID":"185838620","CLASSIFICATION_TYPE":"U","RA_OF_ASC_NODE":"344.0650","TIME_SYSTEM":"UTC","ARG_OF_PERICENTER":"109.4637","SEMIMAJOR_AXIS":"6925.342","RCS_SIZE":"LARGE","PERIOD":"95.592","EPOCH":"2021-09-30T13:55:10.311744","APOAPSIS":"547.964"},{"GP_ID":"185838146","CLASSIFICATION_TYPE":"U","ARG_OF_PERICENTER":"97.3946","SEMIMAJOR_AXIS":"6927.782","RCS_SIZE":"LARGE","PERIOD":"95.643","APOAPSIS":"550.591","EPOCH":"2021-09-30T14:53:01.692672","RA_OF_ASC_NODE":"33.8777","TIME_SYSTEM":"UTC","EPHEMERIS_TYPE":"0","MEAN_ELEMENT_THEORY":"SGP4","MEAN_ANOMALY":"262.7197","REF_FRAME":"TEME","REV_AT_EPOCH":"6237","LAUNCH_DATE":"2020-08-18","FILE":"3136916","PERIAPSIS":"548.702","OBJECT_ID":"2020-057BE","NORAD_CAT_ID":"46169","MEAN_MOTION":"15.05606472","SITE":"AFETR","TLE_LINE2":"2 46169  53.0012  33.8777 0001363  97.3946 262.7197 15.05606472 62373","OBJECT_NAME":"STARLINK-1628","MEAN_MOTION_DDOT":"0.0000000000000","OBJECT_TYPE":"PAYLOAD","ELEMENT_SET_NO":"999","INCLINATION":"53.0012","MEAN_MOTION_DOT":"-0.00002893","TLE_LINE1":"1 46169U 20057BE  21273.62015848 -.00002893  00000-0 -17936-3 0  9992","CENTER_NAME":"EARTH","DECAY_DATE":null,"ECCENTRICITY":"0.00013630","COUNTRY_CODE":"US","BSTAR":"-0.00017936000000"},{"CLASSIFICATION_TYPE":"U","GP_ID":"185838157","SEMIMAJOR_AXIS":"6925.366","ARG_OF_PERICENTER":"97.9468","RCS_SIZE":"LARGE","PERIOD":"95.593","EPOCH":"2021-09-30T14:03:10.793376","APOAPSIS":"547.996","RA_OF_ASC_NODE":"14.0408","TIME_SYSTEM":"UTC","EPHEMERIS_TYPE":"0","MEAN_ELEMENT_THEORY":"SGP4","REF_FRAME":"TEME","MEAN_ANOMALY":"262.1647","REV_AT_EPOCH":"6266","FILE":"3136917","LAUNCH_DATE":"2020-08-18","PERIAPSIS":"546.466","OBJECT_ID":"2020-057BG","NORAD_CAT_ID":"46171","MEAN_MOTION":"15.06394237","OBJECT_NAME":"STARLINK-1633","SITE":"AFETR","TLE_LINE2":"2 46171  53.0559  14.0408 0001105  97.9468 262.1647 15.06394237 62663","ELEMENT_SET_NO":"999","OBJECT_TYPE":"PAYLOAD","MEAN_MOTION_DDOT":"0.0000000000000","INCLINATION":"53.0559","MEAN_MOTION_DOT":"-0.00001348","CENTER_NAME":"EARTH","TLE_LINE1":"1 46171U 20057BG  21273.58554159 -.00001348  00000-0 -71669-4 0  9991","DECAY_DATE":null,"ECCENTRICITY":"0.00011050","COUNTRY_CODE":"US","BSTAR":"-0.00007166900000"},{"RA_OF_ASC_NODE":"14.2776","TIME_SYSTEM":"UTC","RCS_SIZE":"LARGE","SEMIMAJOR_AXIS":"6925.345","ARG_OF_PERICENTER":"112.8004","EPOCH":"2021-09-30T12:48:51.050880","APOAPSIS":"547.900","PERIOD":"95.592","CLASSIFICATION_TYPE":"U","GP_ID":"185860324","TLE_LINE1":"1 46172U 20057BH  21273.53392420  .00000574  00000-0  57429-4 0  9994","CENTER_NAME":"EARTH","DECAY_DATE":null,"MEAN_MOTION_DOT":"0.00000574","INCLINATION":"53.0565","BSTAR":"0.00005742900000","ECCENTRICITY":"0.00009970","COUNTRY_CODE":"US","MEAN_MOTION":"15.06401153","OBJECT_ID":"2020-057BH","NORAD_CAT_ID":"46172","PERIAPSIS":"546.520","ELEMENT_SET_NO":"999","OBJECT_TYPE":"PAYLOAD","MEAN_MOTION_DDOT":"0.0000000000000","OBJECT_NAME":"STARLINK-1635","TLE_LINE2":"2 46172  53.0565  14.2776 0000997 112.8004 247.3090 15.06401153 63251","SITE":"AFETR","FILE":"3136969","LAUNCH_DATE":"2020-08-18","REV_AT_EPOCH":"6325","MEAN_ELEMENT_THEORY":"SGP4","EPHEMERIS_TYPE":"0","REF_FRAME":"TEME","MEAN_ANOMALY":"247.3090"}];
